[{"OBJECT_NAME":"COSMOS 2523","OBJECT_ID":"2017-037E","EPOCH":"2026-03-09T23:01:03.762912","MEAN_MOTION":14.95066265,"ECCENTRICITY":0.0066686,"INCLINATION":97.5062,"RA_OF_ASC_NODE":86.2978,"ARG_OF_PERICENTER":201.8356,"MEAN_ANOMALY":158.0021,"EPHEMERIS_TYPE":0,"CLASSIFICATION_TYPE":"U","NORAD_CAT_ID":42986,"ELEMENT_SET_NO":999,"REV_AT_EPOCH":45413,"BSTAR":0.00015362789,"MEAN_MOTION_DOT":1.699e-5,"MEAN_MOTION_DDOT":0},{"OBJECT_NAME":"STARLINK-2565","OBJECT_ID":"2021-036E","EPOCH":"2026-03-09T07:12:35.222688","MEAN_MOTION":15.06407119,"ECCENTRICITY":0.0001513,"INCLINATION":53.0543,"RA_OF_ASC_NODE":98.3658,"ARG_OF_PERICENTER":91.9906,"MEAN_ANOMALY":268.1256,"EPHEMERIS_TYPE":0,"CLASSIFICATION_TYPE":"U","NORAD_CAT_ID":48280,"ELEMENT_SET_NO":999,"REV_AT_EPOCH":26804,"BSTAR":0.00020570937,"MEAN_MOTION_DOT":2.784e-5,"MEAN_MOTION_DDOT":0}]
